0 FENGYUN 1C DEB
1 29947U 99025JV  13281.44784779 -.00000032  00000-0  87710-5 0   211
2 29947 099.1647 267.9068 0047334 175.1490 337.1347 14.01249820344353
0 FENGYUN 1C DEB
1 29947U 99025JV  13282.51238443 -.00000009  00000-0  23588-4 0   229
2 29947 099.1646 268.9755 0047399 172.2842 307.1222 14.01250209344505
0 FENGYUN 1C DEB
1 29947U 99025JV  13283.92756906  .00000016  00000-0  40280-4 0   230
2 29947 099.1645 270.3960 0047465 168.4946 245.9135 14.01249999344703
0 FENGYUN 1C DEB
1 29947U 99025JV  13286.79710943  .00000032  00000-0  50634-4 0   253
2 29947 099.1646 273.2763 0047601 160.8047 321.0968 14.01250018345106
0 FENGYUN 1C DEB
1 29947U 99025JV  13288.50974912  .00000078  00000-0  80980-4 0   260
2 29947 099.1649 274.9952 0047664 156.2166 320.3791 14.01250439345346
0 FENGYUN 1C DEB
1 29947U 99025JV  13289.85613934  .00000072  00000-0  76991-4 0   275
2 29947 099.1652 276.3464 0047704 152.6270 272.1290 14.01250560345539
0 FENGYUN 1C DEB
1 29947U 99025JV  13291.50987214  .00000100  00000-0  95481-4 0   283
2 29947 099.1656 278.0061 0047745 148.2100 334.2509 14.01250774345768
0 FENGYUN 1C DEB
1 29947U 99025JV  13292.91965032  .00000144  00000-0  12425-3 0   298
2 29947 099.1658 279.4211 0047759 144.4598 245.7502 14.01250832345962
0 FENGYUN 1C DEB
1 29947U 99025JV  13294.79423848  .00000176  00000-0  14531-3 0   307
2 29947 099.1659 281.3029 0047799 139.4214 341.9934 14.01251160346228
